#dP2025  2  6 18  0  0.00000000      96 __u+U IGS20 EXT  IAC
## 2352 410400.00000000   900.00000000 60712 0.7500000000000
+   52   G01G02G03G04G05G06G07G08G09G10G11G12G13G14G15G16G17
+        G18G19G20G21G22G23G24G25G26G27G29G30G31G32R01R02R03
+        R04R05R07R08R09R11R12R14R15R16R17R18R19R20R21R22R24
+        R26  0  0  0  0  0  0  0  0  0  0  0  0  0  0  0  0
+          0  0  0  0  0  0  0  0  0  0  0  0  0  0  0  0  0
++         8  6  7  7  7  7  7  7  8  8  7  7  7  7  7  7  7
++         7  7  7  7  7  7  7  8  7  8  7  7  8  8  7  7  9
++         8  7  7  9  9  9  8  7  7 10 10  8  8  8 11  9  7
++         8  0  0  0  0  0  0  0  0  0  0  0  0  0  0  0  0
++         0  0  0  0  0  0  0  0  0  0  0  0  0  0  0  0  0
%c M  cc GPS ccc cccc cccc cccc cccc ccccc ccccc ccccc ccccc
%c cc cc ccc ccc cccc cccc cccc cccc ccccc ccccc ccccc ccccc
%f  0.0000000  0.000000000  0.00000000000  0.000000000000000
%f  0.0000000  0.000000000  0.00000000000  0.000000000000000
%i    0    0    0    0      0      0      0      0         0
%i    0    0    0    0      0      0      0      0         0
/* IAC                                ULTRA-RAPID PREDICTION
/* S/V CLOCKS ARE ALIGNED TO GNSS TIME                      
/* G:C1WC2W R:C1PC2P E:C1XC5X C:C2IC6I J:C1CC2S             
/* PCV:IGS20_2350 OL/AL:FES2004  NONE     YN ORB:CoN CLK:CoN
*  2025 02 07  8 30  0.00000000
PG01 -14528.053568   7541.110997  20920.294515    104.982116
PG02 -14560.653473   5059.918608  22062.256780   -248.953850
PG03 -23070.635383  11704.885530   5564.804365    659.637502
PG04 -20371.462124   2806.888076 -16872.850759    523.613678
PG05  20168.250136   -782.313829 -17474.424988   -201.262550
PG06   6160.617480  24933.528979  -6430.698462   -171.418455
PG07  -7290.967837  21405.299605 -13019.519781    -13.606185
PG08 -25295.011178  -4664.544123   7382.703561    475.800044
PG09 -12179.714432  10818.311626 -21080.996826    558.137359
PG10   1569.016098 -17380.940063  20153.726041   -308.659767
PG11  11920.431888  17556.653615 -15966.433692   -748.561092
PG12  23911.303701  -8793.785615   7142.476673   -568.851888
PG13  22740.779510  13935.557737    891.717124    695.771814
PG14  -5272.417193  19070.945855  17650.355153    594.195029
PG15  25407.121871   1415.886654   7331.376458    260.652903
PG16 -17034.399016  -6168.326049 -19930.087485    -58.930415
PG17   2870.442961  17374.834949  20222.186769    437.538707
PG18   6259.289071 -22840.669000 -11758.167127   -654.378668
PG19  13417.414412  18730.253689  13456.685182    595.234681
PG20  11878.981450   9635.576596 -21620.349426    366.484175
PG21 -15969.211653  -3672.249366  21445.207283    101.860728
PG22   1795.814889  16285.172282  21338.570264    -95.951780
PG23  14859.518207 -19493.488950   9977.176888    418.911891
PG24  15307.772991  -2796.332008  21055.353105   -455.007451
PG25  19155.089351 -17823.037118  -4008.393715    495.427939
PG26  -8726.796994 -13485.139735 -21319.689491    -80.663751
PG27 -23181.338240 -13047.047031  -3577.976289    -31.895339
PG29  13087.871225  -9432.062596 -21169.791621   -540.003809
PG30    606.522455  26251.994244  -2693.719149   -221.726241
PG31 -10473.964907 -20846.248531 -12600.028960   -216.083703
PG32  -9574.141327 -17687.440876  17687.318556   -526.613479
PR01  -6167.209242 -10819.737828  22264.561254    113.896014
PR02 -21306.268126  -7477.661346  11982.655368    -37.664112
PR03 -24894.016677    674.829211  -5615.047248    116.369070
PR04 -14683.579279   7628.546809 -19385.081559    276.111775
PR05   3253.843378  10845.844820 -22838.854535    144.964846
PR07  24747.295562   -860.347178   6057.932896    100.324494
PR08  14269.518552  -8027.199254  19612.178392     -6.205601
PR09   8797.929820   7281.996934  22819.977436    236.559760
PR11  15538.593752 -19871.857914   3854.283319     -7.104342
PR12   4869.493299 -20022.200604 -15009.937661     50.500569
PR14 -16220.530089   9068.243907 -17458.969465     27.707805
PR15 -15053.704942  20493.871091  -1959.247103     71.431594
PR16  -4974.828170  20023.025462  14977.817612     33.119331
PR17 -12290.052355  -2084.338177  22258.876158    164.052294
PR18  -4255.896149  13745.168304  21065.247762    185.807064
PR19   4140.869795  22676.844145  10923.438246    -39.785909
PR20  13023.326684  19282.008418 -10389.273762   -125.545345
PR21  12645.884070   3711.207843 -21841.003657   -174.717609
PR22   4038.795833 -14951.289204 -20245.106134    -59.539782
PR24 -14279.375636 -18198.817006  10757.928265    -91.456270
PR26  16133.646636  -7383.799804  18359.842373   -131.017857
*  2025 02 07  8 45  0.00000000
PG01 -14702.533244   5118.971834  21523.756384    105.004853
PG02 -15097.626784   2689.368890  22154.872852   -248.945395
PG03 -22526.800307  11071.071700   8332.433449    659.642765
PG04 -21955.795031   1907.230254 -14912.710479    523.618726
PG05  18668.694644    626.259904 -19082.969819   -201.263448
PG06   6046.098750  25531.401289  -3587.318752   -171.441206
PG07  -7763.510233  19736.716596 -15162.299495    -13.606481
PG08 -25864.818975  -5137.279822   4688.326042    475.806248
PG09 -14332.759518   9899.409804 -20160.373699    558.150009
PG10   3369.196222 -18620.191364  18732.054816   -308.673537
PG11  11888.601645  19276.329570 -13880.515885   -748.559225
PG12  23206.586703  -8036.162405   9772.589912   -568.853766
PG13  22606.924866  14089.013683  -1973.787506    695.772809
PG14  -6944.540918  20043.071715  15880.286328    594.201161
PG15  26060.234019   1885.636516   4642.058953    260.656932
PG16 -15165.098070  -7434.258114 -20960.143245    -58.922153
PG17    774.124234  16443.329748  21204.598150    437.521993
PG18   6610.966769 -21380.803725 -14094.270069   -654.376818
PG19  11878.388221  18072.916696  15571.764217    595.238615
PG20  10202.702472  11480.089465 -21586.667696    366.483935
PG21 -16457.707881  -5932.422078  20637.894206    101.860538
PG22   -190.592399  17463.787766  20474.727397    -95.953255
PG23  15748.944624 -19961.499224   7298.147458    418.918454
PG24  15868.714788   -354.404827  20862.200762   -455.003176
PG25  19549.974985 -17745.155251  -1182.397627    495.427296
PG26  -6915.626462 -15048.529473 -20895.403945    -80.678611
PG27 -22613.132607 -13052.621710  -6329.695229    -31.894793
PG29  15155.495710  -8301.461656 -20252.845945   -540.000579
PG30    202.179230  25811.852267  -5461.976248   -221.718405
PG31 -10359.470278 -22147.139034 -10163.572214   -216.082840
PG32  -7620.569278 -17020.359047  19226.676678   -526.606603
PR01  -3382.751823 -10747.579756  22889.130000    113.897137
PR02 -19685.700695  -7235.800115  14617.939044    -37.663754
PR03 -25404.848791    820.895465  -2446.745640    116.369610
PR04 -16966.466208   7610.020563 -17435.447672    276.113554
PR05    415.711208  10658.124128 -23154.791951    144.965323
PR07  25301.619307   -997.172786   2893.722605    100.325102
PR08  16563.302663  -8019.263398  17711.066876     -6.205527
PR09   7391.851565   9687.105326  22413.726244    236.561684
PR11  15065.096113 -19380.987198   6973.501942     -7.107493
PR12   5687.207071 -21512.760159 -12442.534070     50.500924
PR14 -14968.492992   7170.796108 -19357.620349     27.707809
PR15 -14713.384327  20190.237556  -5123.816455     71.431263
PR16  -5771.298591  21518.476743  12392.257635     33.119787
PR17 -13566.054866  -4440.132111  21141.133559    164.055001
PR18  -5377.550846  11319.707895  22225.253696    185.808728
PR19   3677.766958  21217.755551  13674.870104    -39.787172
PR20  13658.056171  20203.881251  -7389.665167   -125.545884
PR21  13887.599066   6017.051105 -20536.172279   -174.720642
PR22   5084.232441 -12584.951169 -21572.080947    -59.541160
PR24 -14924.274684 -19153.256157   7818.218697    -91.457778
PR26  18266.050296  -7411.408212  16225.908994   -131.017538
EOF
